[
    {
        "OBJECT_NAME": "INMARSAT 4-F2 (SOUTHPAN/PRN 122)",
        "OBJECT_ID": "2005-044A",
        "EPOCH": "2026-07-22T10:17:31.655040",
        "MEAN_MOTION": 1.00271931,
        "ECCENTRICITY": 0.00029839,
        "INCLINATION": 5.1407,
        "RA_OF_ASC_NODE": 43.6883,
        "ARG_OF_PERICENTER": 61.6125,
        "MEAN_ANOMALY": 132.7507,
        "EPHEMERIS_TYPE": 0,
        "CLASSIFICATION_TYPE": "U",
        "NORAD_CAT_ID": 28899,
        "ELEMENT_SET_NO": 999,
        "REV_AT_EPOCH": 7587,
        "BSTAR": 0,
        "MEAN_MOTION_DOT": -2.61e-06,
        "MEAN_MOTION_DDOT": 0
    },
    {
        "OBJECT_NAME": "GSAT-8 (GAGAN/PRN 127)",
        "OBJECT_ID": "2011-022A",
        "EPOCH": "2026-07-22T11:35:03.628896",
        "MEAN_MOTION": 1.00272059,
        "ECCENTRICITY": 0.0002512,
        "INCLINATION": 2.2198,
        "RA_OF_ASC_NODE": 81.3953,
        "ARG_OF_PERICENTER": 150.4222,
        "MEAN_ANOMALY": 297.2494,
        "EPHEMERIS_TYPE": 0,
        "CLASSIFICATION_TYPE": "U",
        "NORAD_CAT_ID": 37605,
        "ELEMENT_SET_NO": 999,
        "REV_AT_EPOCH": 5357,
        "BSTAR": 0,
        "MEAN_MOTION_DOT": 8.6e-07,
        "MEAN_MOTION_DDOT": 0
    },
    {
        "OBJECT_NAME": "LUCH 5A (SDCM/PRN 140)",
        "OBJECT_ID": "2011-074B",
        "EPOCH": "2026-07-22T10:44:56.095008",
        "MEAN_MOTION": 1.00274767,
        "ECCENTRICITY": 0.0002888,
        "INCLINATION": 8.8408,
        "RA_OF_ASC_NODE": 73.287,
        "ARG_OF_PERICENTER": 61.8063,
        "MEAN_ANOMALY": 133.3744,
        "EPHEMERIS_TYPE": 0,
        "CLASSIFICATION_TYPE": "U",
        "NORAD_CAT_ID": 37951,
        "ELEMENT_SET_NO": 999,
        "REV_AT_EPOCH": 5340,
        "BSTAR": 0,
        "MEAN_MOTION_DOT": -5.2e-07,
        "MEAN_MOTION_DDOT": 0
    },
    {
        "OBJECT_NAME": "SES-5 (EGNOS/PRN 136)",
        "OBJECT_ID": "2012-036A",
        "EPOCH": "2026-07-22T07:55:21.910944",
        "MEAN_MOTION": 1.00271613,
        "ECCENTRICITY": 0.00020581,
        "INCLINATION": 0.0446,
        "RA_OF_ASC_NODE": 320.3526,
        "ARG_OF_PERICENTER": 156.7771,
        "MEAN_ANOMALY": 306.7623,
        "EPHEMERIS_TYPE": 0,
        "CLASSIFICATION_TYPE": "U",
        "NORAD_CAT_ID": 38652,
        "ELEMENT_SET_NO": 999,
        "REV_AT_EPOCH": 4480,
        "BSTAR": 0,
        "MEAN_MOTION_DOT": 3.7e-07,
        "MEAN_MOTION_DDOT": 0
    },
    {
        "OBJECT_NAME": "GSAT-10 (GAGAN/PRN 128)",
        "OBJECT_ID": "2012-051B",
        "EPOCH": "2026-07-22T10:00:25.037280",
        "MEAN_MOTION": 1.00272627,
        "ECCENTRICITY": 0.00076471,
        "INCLINATION": 0.0731,
        "RA_OF_ASC_NODE": 263.1821,
        "ARG_OF_PERICENTER": 193.0679,
        "MEAN_ANOMALY": 77.0302,
        "EPHEMERIS_TYPE": 0,
        "CLASSIFICATION_TYPE": "U",
        "NORAD_CAT_ID": 38779,
        "ELEMENT_SET_NO": 999,
        "REV_AT_EPOCH": 5045,
        "BSTAR": 0,
        "MEAN_MOTION_DOT": -1.62e-06,
        "MEAN_MOTION_DDOT": 0
    },
    {
        "OBJECT_NAME": "LUCH 5B (SDCM/PRN 125)",
        "OBJECT_ID": "2012-061A",
        "EPOCH": "2026-07-22T07:49:22.485216",
        "MEAN_MOTION": 1.00270748,
        "ECCENTRICITY": 0.00038155,
        "INCLINATION": 10.5579,
        "RA_OF_ASC_NODE": 49.529,
        "ARG_OF_PERICENTER": 142.6443,
        "MEAN_ANOMALY": 208.9363,
        "EPHEMERIS_TYPE": 0,
        "CLASSIFICATION_TYPE": "U",
        "NORAD_CAT_ID": 38977,
        "ELEMENT_SET_NO": 999,
        "REV_AT_EPOCH": 4995,
        "BSTAR": 0,
        "MEAN_MOTION_DOT": -1.42e-06,
        "MEAN_MOTION_DDOT": 0
    },
    {
        "OBJECT_NAME": "ASTRA 5B (EGNOS/PRN 123)",
        "OBJECT_ID": "2014-011B",
        "EPOCH": "2026-07-22T08:00:43.896960",
        "MEAN_MOTION": 1.00272228,
        "ECCENTRICITY": 0.00022024,
        "INCLINATION": 0.0627,
        "RA_OF_ASC_NODE": 311.9113,
        "ARG_OF_PERICENTER": 176.3679,
        "MEAN_ANOMALY": 315.4243,
        "EPHEMERIS_TYPE": 0,
        "CLASSIFICATION_TYPE": "U",
        "NORAD_CAT_ID": 39617,
        "ELEMENT_SET_NO": 999,
        "REV_AT_EPOCH": 4502,
        "BSTAR": 0,
        "MEAN_MOTION_DOT": 1.4e-06,
        "MEAN_MOTION_DDOT": 0
    },
    {
        "OBJECT_NAME": "LUCH 5V (SDCM/PRN 141)",
        "OBJECT_ID": "2014-023A",
        "EPOCH": "2026-07-22T15:11:32.714592",
        "MEAN_MOTION": 1.00271699,
        "ECCENTRICITY": 0.00023213,
        "INCLINATION": 5.2185,
        "RA_OF_ASC_NODE": 69.3754,
        "ARG_OF_PERICENTER": 78.5308,
        "MEAN_ANOMALY": 115.1011,
        "EPHEMERIS_TYPE": 0,
        "CLASSIFICATION_TYPE": "U",
        "NORAD_CAT_ID": 39727,
        "ELEMENT_SET_NO": 999,
        "REV_AT_EPOCH": 4471,
        "BSTAR": 0,
        "MEAN_MOTION_DOT": -2.69e-06,
        "MEAN_MOTION_DDOT": 0
    },
    {
        "OBJECT_NAME": "GSAT-15 (GAGAN/PRN 139)",
        "OBJECT_ID": "2015-065A",
        "EPOCH": "2026-07-22T11:45:59.335776",
        "MEAN_MOTION": 1.00271481,
        "ECCENTRICITY": 0.00036062,
        "INCLINATION": 0.0994,
        "RA_OF_ASC_NODE": 263.2486,
        "ARG_OF_PERICENTER": 179.4604,
        "MEAN_ANOMALY": 127.5282,
        "EPHEMERIS_TYPE": 0,
        "CLASSIFICATION_TYPE": "U",
        "NORAD_CAT_ID": 41028,
        "ELEMENT_SET_NO": 999,
        "REV_AT_EPOCH": 3915,
        "BSTAR": 0,
        "MEAN_MOTION_DOT": -2.54e-06,
        "MEAN_MOTION_DDOT": 0
    },
    {
        "OBJECT_NAME": "EUTELSAT 117 WEST B (WAAS/PRN 131)",
        "OBJECT_ID": "2016-038B",
        "EPOCH": "2026-07-22T11:40:38.727840",
        "MEAN_MOTION": 1.0027529,
        "ECCENTRICITY": 2.692e-05,
        "INCLINATION": 0.0061,
        "RA_OF_ASC_NODE": 166.5957,
        "ARG_OF_PERICENTER": 341.2172,
        "MEAN_ANOMALY": 210.5892,
        "EPHEMERIS_TYPE": 0,
        "CLASSIFICATION_TYPE": "U",
        "NORAD_CAT_ID": 41589,
        "ELEMENT_SET_NO": 999,
        "REV_AT_EPOCH": 3701,
        "BSTAR": 0,
        "MEAN_MOTION_DOT": -9e-08,
        "MEAN_MOTION_DDOT": 0
    },
    {
        "OBJECT_NAME": "SES-15 (WAAS/PRN 133)",
        "OBJECT_ID": "2017-026A",
        "EPOCH": "2026-07-22T12:06:38.635776",
        "MEAN_MOTION": 1.00268122,
        "ECCENTRICITY": 5.808e-05,
        "INCLINATION": 0.0287,
        "RA_OF_ASC_NODE": 320.6475,
        "ARG_OF_PERICENTER": 129.26,
        "MEAN_ANOMALY": 262.8394,
        "EPHEMERIS_TYPE": 0,
        "CLASSIFICATION_TYPE": "U",
        "NORAD_CAT_ID": 42709,
        "ELEMENT_SET_NO": 999,
        "REV_AT_EPOCH": 778,
        "BSTAR": 0,
        "MEAN_MOTION_DOT": 6.4e-07,
        "MEAN_MOTION_DDOT": 0
    },
    {
        "OBJECT_NAME": "QZS-2 (QZSS/PRN 194)",
        "OBJECT_ID": "2017-028A",
        "EPOCH": "2026-07-22T10:34:28.869888",
        "MEAN_MOTION": 1.00274888,
        "ECCENTRICITY": 0.07567047,
        "INCLINATION": 39.3767,
        "RA_OF_ASC_NODE": 242.6339,
        "ARG_OF_PERICENTER": 269.6876,
        "MEAN_ANOMALY": 88.9804,
        "EPHEMERIS_TYPE": 0,
        "CLASSIFICATION_TYPE": "U",
        "NORAD_CAT_ID": 42738,
        "ELEMENT_SET_NO": 999,
        "REV_AT_EPOCH": 798,
        "BSTAR": 0,
        "MEAN_MOTION_DOT": -1.2e-06,
        "MEAN_MOTION_DDOT": 0
    },
    {
        "OBJECT_NAME": "QZS-3 (QZSS/PRN 199)",
        "OBJECT_ID": "2017-048A",
        "EPOCH": "2026-07-22T12:40:38.595936",
        "MEAN_MOTION": 1.00269245,
        "ECCENTRICITY": 0.00028501,
        "INCLINATION": 0.059,
        "RA_OF_ASC_NODE": 203.29,
        "ARG_OF_PERICENTER": 283.6707,
        "MEAN_ANOMALY": 130.4854,
        "EPHEMERIS_TYPE": 0,
        "CLASSIFICATION_TYPE": "U",
        "NORAD_CAT_ID": 42917,
        "ELEMENT_SET_NO": 999,
        "REV_AT_EPOCH": 3261,
        "BSTAR": 0,
        "MEAN_MOTION_DOT": -3.44e-06,
        "MEAN_MOTION_DDOT": 0
    }
]
